[
    {
        "Altitude(m)": 582384.1031987336,
        "Argument of Periapsis(deg)": -0.007534386927657468,
        "Eccentricity": 0.0,
        "Inclination(deg)": 97.0,
        "Latitude(deg)": -48.885960111705444,
        "Longitude(deg)": 71.19603686210861,
        "Mean Anomaly(deg)": 229.12544775639586,
        "RAAN(deg)": 0.0019823512061702565,
        "Satellite Name": "Starlink Shell 3 1619",
        "Satellite Number": 1619,
        "Semi-Major Axis(m)": 6938478.169268562,
        "Time(s)": 190
    },
    {
        "Altitude(m)": 582629.4821500201,
        "Argument of Periapsis(deg)": -0.007930933608060494,
        "Eccentricity": 0.0,
        "Inclination(deg)": 97.0,
        "Latitude(deg)": -49.49857264667213,
        "Longitude(deg)": 70.97741283208882,
        "Mean Anomaly(deg)": 229.7509239541009,
        "RAAN(deg)": 0.0020866854801792176,
        "Satellite Name": "Starlink Shell 3 1619",
        "Satellite Number": 1619,
        "Semi-Major Axis(m)": 6938478.169268562,
        "Time(s)": 200
    },
    {
        "Altitude(m)": 582873.4473693795,
        "Argument of Periapsis(deg)": -0.008327480288463517,
        "Eccentricity": 0.0,
        "Inclination(deg)": 97.0,
        "Latitude(deg)": -50.11081676078463,
        "Longitude(deg)": 70.75433104158006,
        "Mean Anomaly(deg)": 230.37640015180594,
        "RAAN(deg)": 0.0021910197541881783,
        "Satellite Name": "Starlink Shell 3 1619",
        "Satellite Number": 1619,
        "Semi-Major Axis(m)": 6938478.169268562,
        "Time(s)": 210
    },
    {
        "Altitude(m)": 583115.9019252312,
        "Argument of Periapsis(deg)": -0.008724026968866542,
        "Eccentricity": 0.0,
        "Inclination(deg)": 97.0,
        "Latitude(deg)": -50.72267975586731,
        "Longitude(deg)": 70.52657973933759,
        "Mean Anomaly(deg)": 231.00187634951098,
        "RAAN(deg)": 0.002295354028197139,
        "Satellite Name": "Starlink Shell 3 1619",
        "Satellite Number": 1619,
        "Semi-Major Axis(m)": 6938478.169268562,
        "Time(s)": 220
    },
    {
        "Altitude(m)": 583356.7493988316,
        "Argument of Periapsis(deg)": -0.009120573649269567,
        "Eccentricity": 0.0,
        "Inclination(deg)": 97.0,
        "Latitude(deg)": -51.33414815740624,
        "Longitude(deg)": 70.29393425802415,
        "Mean Anomaly(deg)": 231.62735254721602,
        "RAAN(deg)": 0.0023996883022061,
        "Satellite Name": "Starlink Shell 3 1619",
        "Satellite Number": 1619,
        "Semi-Major Axis(m)": 6938478.169268562,
        "Time(s)": 230
    },
    {
        "Altitude(m)": 583595.8939270102,
        "Argument of Periapsis(deg)": -0.009517120329672592,
        "Eccentricity": 0.0,
        "Inclination(deg)": 97.0,
        "Latitude(deg)": -51.94520764983193,
        "Longitude(deg)": 70.05615651678136,
        "Mean Anomaly(deg)": 232.2528287449211,
        "RAAN(deg)": 0.0025040225762150608,
        "Satellite Name": "Starlink Shell 3 1619",
        "Satellite Number": 1619,
        "Semi-Major Axis(m)": 6938478.169268562,
        "Time(s)": 240
    },
    {
        "Altitude(m)": 583833.2402446251,
        "Argument of Periapsis(deg)": -0.009913667010075618,
        "Eccentricity": 0.0,
        "Inclination(deg)": 97.0,
        "Latitude(deg)": -52.5558430056602,
        "Longitude(deg)": 69.81299291784187,
        "Mean Anomaly(deg)": 232.87830494262613,
        "RAAN(deg)": 0.002608356850224022,
        "Satellite Name": "Starlink Shell 3 1619",
        "Satellite Number": 1619,
        "Semi-Major Axis(m)": 6938478.169268562,
        "Time(s)": 250
    },
    {
        "Altitude(m)": 584068.6937266898,
        "Argument of Periapsis(deg)": -0.010310213690478642,
        "Eccentricity": 0.0,
        "Inclination(deg)": 97.0,
        "Latitude(deg)": -53.16603800780241,
        "Longitude(deg)": 69.56417365281887,
        "Mean Anomaly(deg)": 233.50378114033117,
        "RAAN(deg)": 0.0027126911242329826,
        "Satellite Name": "Starlink Shell 3 1619",
        "Satellite Number": 1619,
        "Semi-Major Axis(m)": 6938478.169268562,
        "Time(s)": 260
    },
    {
        "Altitude(m)": 584302.1604301663,
        "Argument of Periapsis(deg)": -0.010706760370881667,
        "Eccentricity": 0.0,
        "Inclination(deg)": 97.0,
        "Latitude(deg)": -53.77577536427798,
        "Longitude(deg)": 69.3094118944478,
        "Mean Anomaly(deg)": 234.1292573380362,
        "RAAN(deg)": 0.0028170253982419437,
        "Satellite Name": "Starlink Shell 3 1619",
        "Satellite Number": 1619,
        "Semi-Major Axis(m)": 6938478.169268562,
        "Time(s)": 270
    },
    {
        "Altitude(m)": 584533.5471354191,
        "Argument of Periapsis(deg)": -0.011103307051284692,
        "Eccentricity": 0.0,
        "Inclination(deg)": 97.0,
        "Latitude(deg)": -54.385036614457064,
        "Longitude(deg)": 69.04840134813267,
        "Mean Anomaly(deg)": 234.75473353574125,
        "RAAN(deg)": 0.0029213596722509044,
        "Satellite Name": "Starlink Shell 3 1619",
        "Satellite Number": 1619,
        "Semi-Major Axis(m)": 6938478.169268562,
        "Time(s)": 280
    },
    {
        "Altitude(m)": 584762.7613872577,
        "Argument of Periapsis(deg)": -0.011499853731687715,
        "Eccentricity": 0.0,
        "Inclination(deg)": 97.0,
        "Latitude(deg)": -54.993802025844765,
        "Longitude(deg)": 68.78081517463585,
        "Mean Anomaly(deg)": 235.3802097334463,
        "RAAN(deg)": 0.003025693946259865,
        "Satellite Name": "Starlink Shell 3 1619",
        "Satellite Number": 1619,
        "Semi-Major Axis(m)": 6938478.169268562,
        "Time(s)": 290
    },
    {
        "Altitude(m)": 584989.7115356533,
        "Argument of Periapsis(deg)": -0.011896400412090741,
        "Eccentricity": 0.0,
        "Inclination(deg)": 97.0,
        "Latitude(deg)": -55.60205048028903,
        "Longitude(deg)": 68.50630475478727,
        "Mean Anomaly(deg)": 236.00568593115136,
        "RAAN(deg)": 0.0031300282202688257,
        "Satellite Name": "Starlink Shell 3 1619",
        "Satellite Number": 1619,
        "Semi-Major Axis(m)": 6938478.169268562,
        "Time(s)": 300
    },
    {
        "Altitude(m)": 585214.3067760025,
        "Argument of Periapsis(deg)": -0.012292947092493765,
        "Eccentricity": 0.0,
        "Inclination(deg)": 97.0,
        "Latitude(deg)": -56.209759348343084,
        "Longitude(deg)": 68.22449676496946,
        "Mean Anomaly(deg)": 236.6311621288564,
        "RAAN(deg)": 0.0032343624942777873,
        "Satellite Name": "Starlink Shell 3 1619",
        "Satellite Number": 1619,
        "Semi-Major Axis(m)": 6938478.169268562,
        "Time(s)": 310
    },
    {
        "Altitude(m)": 585436.457188976,
        "Argument of Periapsis(deg)": -0.012689493772896788,
        "Eccentricity": 0.0,
        "Inclination(deg)": 97.0,
        "Latitude(deg)": -56.816904350332756,
        "Longitude(deg)": 67.93499156831727,
        "Mean Anomaly(deg)": 237.25663832656144,
        "RAAN(deg)": 0.003338696768286748,
        "Satellite Name": "Starlink Shell 3 1619",
        "Satellite Number": 1619,
        "Semi-Major Axis(m)": 6938478.169268562,
        "Time(s)": 320
    },
    {
        "Altitude(m)": 585656.0737799568,
        "Argument of Periapsis(deg)": -0.013086040453299813,
        "Eccentricity": 0.0,
        "Inclination(deg)": 97.0,
        "Latitude(deg)": -57.42345940248157,
        "Longitude(deg)": 67.63736138517692,
        "Mean Anomaly(deg)": 237.88211452426648,
        "RAAN(deg)": 0.0034430310422957086,
        "Satellite Name": "Starlink Shell 3 1619",
        "Satellite Number": 1619,
        "Semi-Major Axis(m)": 6938478.169268562,
        "Time(s)": 330
    },
    {
        "Altitude(m)": 585873.0685179948,
        "Argument of Periapsis(deg)": -0.01348258713370284,
        "Eccentricity": 0.0,
        "Inclination(deg)": 97.0,
        "Latitude(deg)": -58.029396446210356,
        "Longitude(deg)": 67.33114670317343,
        "Mean Anomaly(deg)": 238.50759072197152,
        "RAAN(deg)": 0.00354736531630467,
        "Satellite Name": "Starlink Shell 3 1619",
        "Satellite Number": 1619,
        "Semi-Major Axis(m)": 6938478.169268562,
        "Time(s)": 340
    },
    {
        "Altitude(m)": 586087.3543743057,
        "Argument of Periapsis(deg)": -0.013879133814105863,
        "Eccentricity": 0.0,
        "Inclination(deg)": 97.0,
        "Latitude(deg)": -58.63468525845198,
        "Longitude(deg)": 67.01585392216384,
        "Mean Anomaly(deg)": 239.1330669196765,
        "RAAN(deg)": 0.00365169959031363,
        "Satellite Name": "Starlink Shell 3 1619",
        "Satellite Number": 1619,
        "Semi-Major Axis(m)": 6938478.169268562,
        "Time(s)": 350
    },
    {
        "Altitude(m)": 586298.8453602963,
        "Argument of Periapsis(deg)": -0.01427568049450889,
        "Eccentricity": 0.0,
        "Inclination(deg)": 97.0,
        "Latitude(deg)": -59.239293240510996,
        "Longitude(deg)": 66.69095268650712,
        "Mean Anomaly(deg)": 239.75854311738155,
        "RAAN(deg)": 0.0037560338643225916,
        "Satellite Name": "Starlink Shell 3 1619",
        "Satellite Number": 1619,
        "Semi-Major Axis(m)": 6938478.169268562,
        "Time(s)": 360
    },
    {
        "Altitude(m)": 586507.4565650508,
        "Argument of Periapsis(deg)": -0.014672227174911913,
        "Eccentricity": 0.0,
        "Inclination(deg)": 97.0,
        "Latitude(deg)": -59.84318518262514,
        "Longitude(deg)": 66.35587135219619,
        "Mean Anomaly(deg)": 240.3840193150866,
        "RAAN(deg)": 0.0038603681383315522,
        "Satellite Name": "Starlink Shell 3 1619",
        "Satellite Number": 1619,
        "Semi-Major Axis(m)": 6938478.169268562,
        "Time(s)": 370
    }
]